{"type": "FeatureCollection", "features": [ {"type": "Feature", "properties": {"norad_id": 34845, "name": "COSMOS 2251 DEB", "group": "cosmos-2251-debris", "lat": 49.049023637572525, "lon": 141.12831520598135, "alt_km": 744.9743004118009, "timestamp": "2025-12-26T22:28:06.180785+00:00", "meta": {"OBJECT_NAME": "COSMOS 2251 DEB", "OBJECT_ID": "1993-036ABP", "EPOCH": "2025-12-24T15:25:52.110336", "MEAN_MOTION": 14.4588243, "ECCENTRICITY": 0.00226897, "INCLINATION": 74.0249, "RA_OF_ASC_NODE": 126.132, "ARG_OF_PERICENTER": 285.329, "MEAN_ANOMALY": 74.5361, "EPHEMERIS_TYPE": 0, "CLASSIFICATION_TYPE": "U", "NORAD_CAT_ID": 34845, "ELEMENT_SET_NO": 999, "REV_AT_EPOCH": 87638, "BSTAR": 0.00029040944, "MEAN_MOTION_DOT": 1.008e-05, "MEAN_MOTION_DDOT": 0}, "tle": {"line1": "1 34845U 93036ABP 25358.64296424  .00001008  00000+0  29041-3 0  9992", "line2": "2 34845  74.0249 126.1320 0022689 285.3290  74.5361 14.45882430876380"}}, "geometry": {"type": "Point", "coordinates": [141.12831520598135, 49.049023637572525]}}, {"type": "Feature", "properties": {"norad_id": 34846, "name": "COSMOS 2251 DEB", "group": "cosmos-2251-debris", "lat": 57.704123309885354, "lon": -97.83332678410794, "alt_km": 738.3885002321022, "timestamp": "2025-12-26T22:28:06.180796+00:00", "meta": {"OBJECT_NAME": "COSMOS 2251 DEB", "OBJECT_ID": "1993-036ABQ", "EPOCH": "2025-12-26T17:12:29.426400", "MEAN_MOTION": 14.47289364, "ECCENTRICITY": 0.0026224, "INCLINATION": 74.0298, "RA_OF_ASC_NODE": 235.636, "ARG_OF_PERICENTER": 300.308, "MEAN_ANOMALY": 59.5485, "EPHEMERIS_TYPE": 0, "CLASSIFICATION_TYPE": "U", "NORAD_CAT_ID": 34846, "ELEMENT_SET_NO": 999, "REV_AT_EPOCH": 87606, "BSTAR": 0.00071262, "MEAN_MOTION_DOT": 2.592e-05, "MEAN_MOTION_DDOT": 0}, "tle": {"line1": "1 34846U 93036ABQ 25360.71700725  .00002592  00000+0  71262-3 0  9999", "line2": "2 34846  74.0298 235.6360 0026224 300.3080  59.5485 14.47289364876063"}}, "geometry": {"type": "Point", "coordinates": [-97.83332678410794, 57.704123309885354]}}, {"type": "Feature", "properties": {"norad_id": 34852, "name": "COSMOS 2251 DEB", "group": "cosmos-2251-debris", "lat": -34.172676672620184, "lon": -134.34335912026526, "alt_km": 762.571394054854, "timestamp": "2025-12-26T22:28:06.180806+00:00", "meta": {"OBJECT_NAME": "COSMOS 2251 DEB", "OBJECT_ID": "1993-036ABW", "EPOCH": "2025-12-24T08:48:51.292512", "MEAN_MOTION": 14.37013481, "ECCENTRICITY": 0.00167051, "INCLINATION": 74.0323, "RA_OF_ASC_NODE": 241.5883, "ARG_OF_PERICENTER": 342.3569, "MEAN_ANOMALY": 17.7002, "EPHEMERIS_TYPE": 0, "CLASSIFICATION_TYPE": "U", "NORAD_CAT_ID": 34852, "ELEMENT_SET_NO": 999, "REV_AT_EPOCH": 87701, "BSTAR": 0.00010991472, "MEAN_MOTION_DOT": 3e-06, "MEAN_MOTION_DDOT": 0}, "tle": {"line1": "1 34852U 93036ABW 25358.36726033  .00000300  00000+0  10991-3 0  9991", "line2": "2 34852  74.0323 241.5883 0016705 342.3569  17.7002 14.37013481877017"}}, "geometry": {"type": "Point", "coordinates": [-134.34335912026526, -34.172676672620184]}}, {"type": "Feature", "properties": {"norad_id": 34854, "name": "COSMOS 2251 DEB", "group": "cosmos-2251-debris", "lat": 73.5956838293922, "lon": -125.8417255443542, "alt_km": 670.2649176400009, "timestamp": "2025-12-26T22:28:06.180816+00:00", "meta": {"OBJECT_NAME": "COSMOS 2251 DEB", "OBJECT_ID": "1993-036ABY", "EPOCH": "2025-12-24T03:22:47.701632", "MEAN_MOTION": 14.76734417, "ECCENTRICITY": 0.00659344, "INCLINATION": 74.0296, "RA_OF_ASC_NODE": 136.2324, "ARG_OF_PERICENTER": 245.6439, "MEAN_ANOMALY": 113.7843, "EPHEMERIS_TYPE": 0, "CLASSIFICATION_TYPE": "U", "NORAD_CAT_ID": 34854, "ELEMENT_SET_NO": 999, "REV_AT_EPOCH": 72050, "BSTAR": 0.00083194152, "MEAN_MOTION_DOT": 6.009e-05, "MEAN_MOTION_DDOT": 0}, "tle": {"line1": "1 34854U 93036ABY 25358.14082988  .00006009  00000+0  83194-3 0  9990", "line2": "2 34854  74.0296 136.2324 0065934 245.6439 113.7843 14.76734417720500"}}, "geometry": {"type": "Point", "coordinates": [-125.8417255443542, 73.5956838293922]}}, {"type": "Feature", "properties": {"norad_id": 34856, "name": "COSMOS 2251 DEB", "group": "cosmos-2251-debris", "lat": -61.3749755450456, "lon": -92.63343667958915, "alt_km": 540.66587764407, "timestamp": "2025-12-26T22:28:06.180827+00:00", "meta": {"OBJECT_NAME": "COSMOS 2251 DEB", "OBJECT_ID": "1993-036ACA", "EPOCH": "2025-12-26T10:17:23.314848", "MEAN_MOTION": 15.06738282, "ECCENTRICITY": 0.0030864, "INCLINATION": 73.996, "RA_OF_ASC_NODE": 56.6831, "ARG_OF_PERICENTER": 191.9042, "MEAN_ANOMALY": 182.3724, "EPHEMERIS_TYPE": 0, "CLASSIFICATION_TYPE": "U", "NORAD_CAT_ID": 34856, "ELEMENT_SET_NO": 999, "REV_AT_EPOCH": 89318, "BSTAR": 0.0015857, "MEAN_MOTION_DOT": 0.00023877, "MEAN_MOTION_DDOT": 0}, "tle": {"line1": "1 34856U 93036ACA 25360.42874207  .00023877  00000+0  15857-2 0  9991", "line2": "2 34856  73.9960  56.6831 0030864 191.9042 182.3724 15.06738282893186"}}, "geometry": {"type": "Point", "coordinates": [-92.63343667958915, -61.3749755450456]}}, {"type": "Feature", "properties": {"norad_id": 34857, "name": "COSMOS 2251 DEB", "group": "cosmos-2251-debris", "lat": -7.00552752992151, "lon": 77.72999637805572, "alt_km": 740.1534880451882, "timestamp": "2025-12-26T22:28:06.180837+00:00", "meta": {"OBJECT_NAME": "COSMOS 2251 DEB", "OBJECT_ID": "1993-036ACB", "EPOCH": "2025-12-26T16:37:25.341024", "MEAN_MOTION": 14.59029384, "ECCENTRICITY": 0.0065138, "INCLINATION": 74.0152, "RA_OF_ASC_NODE": 80.213, "ARG_OF_PERICENTER": 202.0737, "MEAN_ANOMALY": 311.7838, "EPHEMERIS_TYPE": 0, "CLASSIFICATION_TYPE": "U", "NORAD_CAT_ID": 34857, "ELEMENT_SET_NO": 999, "REV_AT_EPOCH": 88104, "BSTAR": 0.0010642, "MEAN_MOTION_DOT": 5.122e-05, "MEAN_MOTION_DDOT": 0}, "tle": {"line1": "1 34857U 93036ACB 25360.69265441  .00005122  00000+0  10642-2 0  9995", "line2": "2 34857  74.0152  80.2130 0065138 202.0737 311.7838 14.59029384881043"}}, "geometry": {"type": "Point", "coordinates": [77.72999637805572, -7.00552752992151]}}, {"type": "Feature", "properties": {"norad_id": 34859, "name": "COSMOS 2251 DEB", "group": "cosmos-2251-debris", "lat": -30.824503478418716, "lon": -59.76210907963393, "alt_km": 520.7398377477302, "timestamp": "2025-12-26T22:28:06.180847+00:00", "meta": {"OBJECT_NAME": "COSMOS 2251 DEB", "OBJECT_ID": "1993-036ACD", "EPOCH": "2025-12-26T15:27:55.791936", "MEAN_MOTION": 15.1681248, "ECCENTRICITY": 0.0001181, "INCLINATION": 74.0308, "RA_OF_ASC_NODE": 310.685, "ARG_OF_PERICENTER": 35.91, "MEAN_ANOMALY": 139.3575, "EPHEMERIS_TYPE": 0, "CLASSIFICATION_TYPE": "U", "NORAD_CAT_ID": 34859, "ELEMENT_SET_NO": 999, "REV_AT_EPOCH": 88569, "BSTAR": 0.0037314, "MEAN_MOTION_DOT": 0.00074089, "MEAN_MOTION_DDOT": 0}, "tle": {"line1": "1 34859U 93036ACD 25360.64439574  .00074089  00000+0  37314-2 0  9995", "line2": "2 34859  74.0308 310.6850 0001181  35.9100 139.3575 15.16812480885690"}}, "geometry": {"type": "Point", "coordinates": [-59.76210907963393, -30.824503478418716]}}, {"type": "Feature", "properties": {"norad_id": 34861, "name": "COSMOS 2251 DEB", "group": "cosmos-2251-debris", "lat": -56.413509905158044, "lon": -3.7368512803596694, "alt_km": 560.851885903845, "timestamp": "2025-12-26T22:28:06.180858+00:00", "meta": {"OBJECT_NAME": "COSMOS 2251 DEB", "OBJECT_ID": "1993-036ACF", "EPOCH": "2025-12-26T10:16:09.255360", "MEAN_MOTION": 15.0344405, "ECCENTRICITY": 0.0008418, "INCLINATION": 74.0184, "RA_OF_ASC_NODE": 22.8703, "ARG_OF_PERICENTER": 10.7885, "MEAN_ANOMALY": 59.332, "EPHEMERIS_TYPE": 0, "CLASSIFICATION_TYPE": "U", "NORAD_CAT_ID": 34861, "ELEMENT_SET_NO": 999, "REV_AT_EPOCH": 88298, "BSTAR": 0.0027321, "MEAN_MOTION_DOT": 0.00037393, "MEAN_MOTION_DDOT": 0}, "tle": {"line1": "1 34861U 93036ACF 25360.42788490  .00037393  00000+0  27321-2 0  9992", "line2": "2 34861  74.0184  22.8703 0008418  10.7885  59.3320 15.03444050882983"}}, "geometry": {"type": "Point", "coordinates": [-3.7368512803596694, -56.413509905158044]}}, {"type": "Feature", "properties": {"norad_id": 34874, "name": "COSMOS 2251 DEB", "group": "cosmos-2251-debris", "lat": 73.97038415944654, "lon": 132.64880132061975, "alt_km": 729.150483345823, "timestamp": "2025-12-26T22:28:06.180868+00:00", "meta": {"OBJECT_NAME": "COSMOS 2251 DEB", "OBJECT_ID": "1993-036ACM", "EPOCH": "2025-12-24T22:24:14.356800", "MEAN_MOTION": 14.36365151, "ECCENTRICITY": 0.0050509, "INCLINATION": 74.0391, "RA_OF_ASC_NODE": 51.3701, "ARG_OF_PERICENTER": 72.6657, "MEAN_ANOMALY": 104.1751, "EPHEMERIS_TYPE": 0, "CLASSIFICATION_TYPE": "U", "NORAD_CAT_ID": 34874, "ELEMENT_SET_NO": 999, "REV_AT_EPOCH": 87219, "BSTAR": 0.00083514, "MEAN_MOTION_DOT": 2.455e-05, "MEAN_MOTION_DDOT": 0}, "tle": {"line1": "1 34874U 93036ACM 25358.93349950  .00002455  00000+0  83514-3 0  9991", "line2": "2 34874  74.0391  51.3701 0050509  72.6657 104.1751 14.36365151872192"}}, "geometry": {"type": "Point", "coordinates": [132.64880132061975, 73.97038415944654]}}, {"type": "Feature", "properties": {"norad_id": 34875, "name": "COSMOS 2251 DEB", "group": "cosmos-2251-debris", "lat": 60.46933899873952, "lon": 161.95186794949672, "alt_km": 734.1790092937845, "timestamp": "2025-12-26T22:28:06.180879+00:00", "meta": {"OBJECT_NAME": "COSMOS 2251 DEB", "OBJECT_ID": "1993-036ACN", "EPOCH": "2025-12-26T09:03:25.523136", "MEAN_MOTION": 14.48972349, "ECCENTRICITY": 0.0016255, "INCLINATION": 74.0439, "RA_OF_ASC_NODE": 132.6635, "ARG_OF_PERICENTER": 255.3321, "MEAN_ANOMALY": 135.8021, "EPHEMERIS_TYPE": 0, "CLASSIFICATION_TYPE": "U", "NORAD_CAT_ID": 34875, "ELEMENT_SET_NO": 999, "REV_AT_EPOCH": 87953, "BSTAR": 0.00051077, "MEAN_MOTION_DOT": 1.912e-05, "MEAN_MOTION_DDOT": 0}, "tle": {"line1": "1 34875U 93036ACN 25360.37737874  .00001912  00000+0  51077-3 0  9995", "line2": "2 34875  74.0439 132.6635 0016255 255.3321 135.8021 14.48972349879535"}}, "geometry": {"type": "Point", "coordinates": [161.95186794949672, 60.46933899873952]}}]}